{
    "links": {
        "self": "http://www.neowsapp.com/rest/v1/neo/3670727?api_key=iIulBulltgU6a56xZRHN4H3l9WmuAYTsLGpBGhQ2"
    },
    "id": "3670727",
    "neo_reference_id": "3670727",
    "name": "(2014 JS25)",
    "designation": "2014 JS25",
    "nasa_jpl_url": "http://ssd.jpl.nasa.gov/sbdb.cgi?sstr=3670727",
    "absolute_magnitude_h": 26.5,
    "estimated_diameter": {
        "kilometers": {
            "estimated_diameter_min": 0.0133215567,
            "estimated_diameter_max": 0.0297879063
        },
        "meters": {
            "estimated_diameter_min": 13.3215566698,
            "estimated_diameter_max": 29.7879062798
        },
        "miles": {
            "estimated_diameter_min": 0.008277629,
            "estimated_diameter_max": 0.0185093411
        },
        "feet": {
            "estimated_diameter_min": 43.7058959846,
            "estimated_diameter_max": 97.7293544391
        }
    },
    "is_potentially_hazardous_asteroid": false,
    "close_approach_data": [
        {
            "close_approach_date": "2014-05-09",
            "close_approach_date_full": "2014-May-09 10:16",
            "epoch_date_close_approach": 1399630560000,
            "relative_velocity": {
                "kilometers_per_second": "7.9573988689",
                "kilometers_per_hour": "28646.635928098",
                "miles_per_hour": "17799.9055298784"
            },
            "miss_distance": {
                "astronomical": "0.0270993928",
                "lunar": "10.5416637992",
                "kilometers": "4054011.441173336",
                "miles": "2519045.8998345968"
            },
            "orbiting_body": "Earth"
        }
    ],
    "orbital_data": {
        "orbit_id": "4",
        "orbit_determination_date": "2017-04-06 08:40:35",
        "first_observation_date": "2014-05-07",
        "last_observation_date": "2014-05-09",
        "data_arc_in_days": 2,
        "observations_used": 15,
        "orbit_uncertainty": "8",
        "minimum_orbit_intersection": ".0180694",
        "jupiter_tisserand_invariant": "3.678",
        "epoch_osculation": "2456785.5",
        "eccentricity": ".4943376499756195",
        "semi_major_axis": "1.999896247589083",
        "inclination": "3.513212045747488",
        "ascending_node_longitude": "221.0373747224813",
        "orbital_period": "1033.022129611659",
        "perihelion_distance": "1.011272236360836",
        "perihelion_argument": "27.77296700265222",
        "aphelion_distance": "2.988520258817331",
        "perihelion_time": "2456803.578699053424",
        "mean_anomaly": "353.6997170993043",
        "mean_motion": ".3484920503448785",
        "equinox": "J2000",
        "orbit_class": {
            "orbit_class_type": "APO",
            "orbit_class_description": "Near-Earth asteroid orbits which cross the Earth’s orbit similar to that of 1862 Apollo",
            "orbit_class_range": "a (semi-major axis) > 1.0 AU; q (perihelion) < 1.017 AU"
        }
    },
    "is_sentry_object": false
}